#aV2011 11 18  0  0   .00000000      96 DD+AD WGS84 FIT  NGA
## 1662 432000.00000000   900.00000000 55883  .0000000000000
+   31     1  2  3  4  5  6  7  8  9 10 11 12 13 14 15 16 17
+         18 19 20 21 22 23 25 26 27 28 29 30 31 32  0  0  0
+          0  0  0  0  0  0  0  0  0  0  0  0  0  0  0  0  0
+          0  0  0  0  0  0  0  0  0  0  0  0  0  0  0  0  0
+          0  0  0  0  0  0  0  0  0  0  0  0  0  0  0  0  0
++         0  0  0  0  0  0  0  0  0  0  0  0  0  0  0  0  0
++         0  0  0  0  0  0  0  0  0  0  0  0  0  0  0  0  0
++         0  0  0  0  0  0  0  0  0  0  0  0  0  0  0  0  0
++         0  0  0  0  0  0  0  0  0  0  0  0  0  0  0  0  0
++         0  0  0  0  0  0  0  0  0  0  0  0  0  0  0  0  0
%c cc cc ccc ccc cccc cccc cccc cccc ccccc ccccc ccccc ccccc
%c cc cc ccc ccc cccc cccc cccc cccc ccccc ccccc ccccc ccccc
%f  0.0000000  0.000000000  0.00000000000  0.000000000000000
%f  0.0000000  0.000000000  0.00000000000  0.000000000000000
%i    0    0    0    0      0      0      0      0         0
%i    0    0    0    0      0      0      0      0         0
/*      NGA, ST. LOUIS,MO.                                  
/*   EPHEMERIS COMPUTED FROM  3 DAYS OF DATA                
/* CCCCCCCCCCCCCCCCCCCCCCCCCCCCCCCCCCCCCCCCCCCCCCCCCCCCCCCCC
/* CCCCCCCCCCCCCCCCCCCCCCCCCCCCCCCCCCCCCCCCCCCCCCCCCCCCCCCCC
*  2011 11 18 20 45   .00000000                                                 
P  1   8558.347452  13797.014283 -21037.248026    100.823386                    
V  1 -26395.985180   3927.214381  -8162.116935       .205664                    
P  2  15677.010217 -13927.255182  16079.125410    366.255472                    
V  2  20705.811253    -72.480309 -20846.854526       .017725                    
P  3 -10356.983834  23767.623506   4551.028046    796.826103                    
V  3  -2097.745800  -7272.767239  30506.784117       .050081                    
P  4  25436.751721  -6479.563165   4867.349902      7.893835                    
V  4   6754.347288   2456.215164 -30208.895053       .112400                    
P  5   3640.140412 -17954.105678  19172.033824   -246.938013                    
V  5  15767.674193  18739.373687  14663.933350      -.049523                    
P  6 -14284.130852  20610.736206   8480.489985      4.384773                    
V  6    460.895779 -11241.283881  28802.345744       .054161                    
P  7  21958.655200   6943.134629  13462.107689     38.155774                    
V  7 -16683.799754   3392.177796  25263.201862       .022232                    
P  8  26588.426825   1733.887951   3577.103101       .086280                    
V  8  -4360.019125   1239.551919  31742.285636      -.000089                    
P  9  -4082.553669 -14501.294472 -22421.367479    119.224821                    
V  9  26841.935384  -3611.928607  -2641.158335       .024530                    
P 10  17547.014446    153.770788  19814.181847    -19.464159                    
V 10  13898.869976  21533.031641 -11944.908296      -.011446                    
P 11   2536.108338  17002.341773 -20575.382068   -205.218386                    
V 11 -24232.003659   8634.571348   4566.194826      -.035036                    
P 12 -10884.736710 -23340.913284  -6846.731719     35.515851                    
V 12   6659.700532   5880.416334 -30427.678015       .022882                    
P 13   9649.176548  11968.943499  21511.540558    240.766621                    
V 13 -13579.492568  24002.353163  -7297.271339      -.019941                    
P 14 -17601.838264   8087.200736 -17928.965722    181.892875                    
V 14   9265.444432 -21238.858130 -18632.672524       .017722                    
P 15   2384.650106 -24442.874573  -9861.421447    -98.981105                    
V 15   7595.910043 -10520.190358  28077.845172       .010663                    
P 16  -4324.041017  17183.088485  19700.497219   -209.567592                    
V 16 -15058.663181 -20031.010400  14463.419394      -.019853                    
P 17  17528.191393  -6833.575504 -18501.978860    165.030186                    
V 17  -8768.739904  22278.338484 -16639.124906      -.019353                    
P 18 -19673.768210 -15159.698671  -9559.252930    167.740031                    
V 18  -4794.868350 -12021.012197  27575.728607       .018538                    
P 19  -6656.243940  24210.831905  -8098.422377   -206.275455                    
V 19  -7528.369027   7686.304635  29644.726720      -.039494                    
P 20  12138.597689  22791.377827  -6520.645295     56.356884                    
V 20  -7785.531498  -4140.542737 -29576.295636       .006928                    
P 21 -24496.536496  -5041.878212  10218.384086   -185.357111                    
V 21  11847.590028  -4000.287069  27038.163902      -.024595                    
P 22 -18366.911177  -1299.802947 -19001.612722    143.422087                    
V 22 -12933.661342 -20970.590949  13697.705215      -.002337                    
P 23   3892.752605  19994.663136  16874.014540    258.220817                    
V 23 -10617.626913  18815.572238 -20230.162835      -.032629                    
P 25 -17558.672946 -19716.127978   3023.813110     28.022294                    
V 25   -266.723134  -4645.685345 -31553.441599       .011660                    
P 26  12318.203064 -23282.445823   -195.932721   -230.873714                    
V 26   1868.716804   1542.168057  32555.377544      -.135161                    
P 27   3011.719024 -14782.868050 -21162.502150    327.047307                    
V 27  28186.511367  -3680.144890   6776.940749       .040337                    
P 28  18443.996747   5986.490286 -17729.525503     85.424266                    
V 28  11963.908446  20229.068192  18476.136874       .034058                    
P 29 -10134.418049 -12737.263625  21058.337056    258.588096                    
V 29  12231.882742 -23610.758280  -8380.769166       .034498                    
P 30 -15609.162009   4442.400225  20670.687604     45.753935                    
V 30 -17581.414999 -20626.614968  -8693.375583      -.088524                    
P 31 -23646.350386   8504.526194   9146.053706    171.183135                    
V 31 -11355.026532   -663.574248 -29182.145793       .050935                    
P 32   3957.596776  23268.792907 -12373.862796   -363.843397                    
V 32 -10243.331235 -12427.518495 -25676.360957      -.060185                    
EOF
